73P-BX/Schwassmann-Wachmann,e,11.3442,69.3804,199.1978,3.118450,0.1789765,0.69246195,110.0368,05/03.0/2024,2000,g 17.5,4.0
# From MPEC 2022-R15
73P-BY/Schwassmann-Wachmann,e,11.1549,199.2202,69.7680,3.029077,0.1869557,0.68349455,115.2111,05/03.0/2024,2000,g 17.4,4.0
# From MPEC 2024-EF7
74P/Smirnova-Chernykh,e,6.4719,53.7051,119.0964,4.861579,0.0919471,0.03796962,237.2998,05/03.0/2024,2000,g  5.0,6.0
# From CCO 7
75D/Kohoutek,e,5.9255,269.5532,175.5524,3.537381,0.1481430,0.49933476,170.6407,05/03.0/2024,2000,g  9.5,6.0
# From MPEC 2022-K19
76P/West-Kohoutek-Ikemura,e,30.4874,84.1108,359.9560,3.468987,0.1525457,0.53929809,251.6080,05/03.0/2024,2000,g  8.0,12.0
# From MPEC 2023-TM6
77P/Longmore,e,24.3186,14.7619,196.6797,3.622082,0.1429772,0.35166928,56.6276,05/03.0/2024,2000,g  7.0,8.0
# From MPEC 2021-O56
78P/Gehrels,e,6.2568,210.5309,192.6916,3.735403,0.1365205,0.46318575,253.1093,05/03.0/2024,2000,g  5.5,8.0
# From MPC 94675
79P/du Toit-Hartley,e,3.1489,281.7719,280.5233,2.943695,0.1951483,0.61919915,42.0841,05/03.0/2024,2000,g 16.0,4.0
# From MPEC 2023-RF3
80P/Peters-Hartley,e,29.9240,259.7818,339.2790,4.022768,0.1221565,0.59817947,62.4532,05/03.0/2024,2000,g  9.0,8.0
# From MPEC 2024-F91
81P/Wild,e,3.2369,136.0936,41.5856,3.452703,0.1536262,0.53728270,77.4925,05/03.0/2024,2000,g  7.0,6.0
# From MPC133426
82P/Gehrels,e,1.1292,239.2330,226.4142,4.132237,0.1173346,0.12247652,251.2310,05/03.0/2024,2000,g 15.0,4.0
# From NK 932
83D/Russell,e,17.8264,226.3050,334.4283,3.843933,0.1307797,0.44132725,140.8023,05/03.0/2024,2000,g  9.0,4.0
# From MPEC 2020-FB5
84P/Giclas,e,7.5514,108.1584,281.6537,3.550090,0.1473482,0.51601618,210.4180,05/03.0/2024,2000,g  9.5,8.0
# From unp
85D/Boethin,e,4.1742,65.2843,333.0741,5.044324,0.0869961,0.77627895,119.4160,05/03.0/2024,2000,g  6.5,8.0
# From MPEC 2022-YB4
86P/Wild,e,15.5207,72.1041,180.6153,3.625015,0.1428036,0.37000170,116.3039,05/03.0/2024,2000,g 11.0,6.0
# From MPEC 2020-SI8
87P/Bus,e,2.7316,186.8050,51.2052,4.289899,0.1109260,0.23620378,163.5490,05/03.0/2024,2000,g  7.2,10.0
# From MPEC 2024-C04
88P/Howell,e,4.3820,56.6665,235.9181,3.107285,0.1799419,0.56320955,236.7607,05/03.0/2024,2000,g 11.0,6.0
# From MPEC 2024-H50
89P/Russell,e,12.0720,41.3454,250.4016,3.751485,0.1356436,0.40774274,5.0721,05/03.0/2024,2000,g 11.5,6.0
# From MPEC 2022-K19
90P/Gehrels,e,9.6474,13.2131,29.1182,6.052170,0.0661969,0.51110801,165.8510,05/03.0/2024,2000,g  8.5,6.0
# From MPEC 2023-VM5
91P/Russell,e,16.4076,242.8483,359.4521,3.952911,0.1254089,0.31519822,163.4054,05/03.0/2024,2000,g  7.5,6.0
# From MPEC 2014-J58
92P/Sanguin,e,19.4933,181.3765,163.8011,5.342907,0.0798064,0.66048292,266.7907,05/03.0/2024,2000,g 12.0,6.0
# From NK 2707
93P/Lovas,e,12.2054,339.5783,74.9540,4.376974,0.1076324,0.61400823,281.4481,05/03.0/2024,2000,g  9.0,4.0
# From MPEC 2024-F91
94P/Russell,e,6.1879,70.8519,92.3997,3.510551,0.1498446,0.36569531,52.1396,05/03.0/2024,2000,g  9.0,6.0
# From MPC 75717
95P/Chiron,e,6.9228,209.1989,339.3964,13.70945,0.0194166,0.37691926,201.6307,05/03.0/2024,2000,g  6.5,2.0
# From MPEC 2023-N01
96P/Machholz,e,57.5507,93.9558,14.7409,3.030852,0.1867915,0.96163321,85.5289,05/03.0/2024,2000,g 13.0,4.8
# From MPC106348
96P-B/Machholz,e,57.5037,14.7114,93.9555,3.030093,0.1868616,0.96164499,85.5632,05/03.0/2024,2000,g 13.0,4.8
# From MPC103849
96P-C/Machholz,e,58.5311,94.3495,15.5380,3.011920,0.1885553,0.95889850,359.8715,07/14.0/2012,2000,g  9.0,4.0
# From MPEC 2024-GJ3
97P/Metcalf-Brewington,e,17.9481,184.0803,230.1105,4.766726,0.0947052,0.46028596,76.4267,05/03.0/2024,2000,g  5.5,6.0
# From MPEC 2021-W31
98P/Takamizawa,e,10.5743,114.6257,157.7257,3.789410,0.1336124,0.56283063,162.3351,05/03.0/2024,2000,g  9.0,8.0
# From MPEC 2024-A43
99P/Kowal,e,4.3393,28.0917,174.6559,6.096724,0.0654726,0.22852558,49.3664,05/03.0/2024,2000,g  4.5,6.0
# From MPEC 2023-OA6
100P/Hartley,e,25.5673,37.6856,181.9657,3.430598,0.1551134,0.41161434,97.9165,05/03.0/2024,2000,g  9.0,8.0
# From MPEC 2024-EF7
101P/Chernykh,e,5.0491,116.1580,277.8932,5.813748,0.0703104,0.59621502,110.4935,05/03.0/2024,2000,g 10.0,4.8
# From MPC105241
101P-B/Chernykh,e,5.0499,278.5434,115.5103,5.829242,0.0700303,0.59642567,108.8084,05/03.0/2024,2000,g  9.0,4.0
# From MPEC 2022-C56
102P/Shoemaker,e,25.8694,339.4101,20.6663,3.818575,0.1320845,0.45657929,158.0510,05/03.0/2024,2000,g  6.5,8.0
# From MPEC 2024-H91
103P/Hartley,e,13.6107,219.7490,181.3024,3.474447,0.1521863,0.69372202,30.9689,05/03.0/2024,2000,g  8.5,8.0
# From MPEC 2023-G31
104P/Kowal,e,5.7030,207.2073,227.2595,3.208678,0.1714806,0.66588737,144.3922,05/03.0/2024,2000,g 16.0,4.0
# From MPEC 2024-F34
105P/SingerBrewster,e,9.1682,192.3976,46.3585,3.471586,0.1523744,0.40893152,319.6466,05/03.0/2024,2000,g 11.5,6.0
# From MPEC 2023-UR6
106P/Schuster,e,19.5404,48.8622,353.7720,3.767142,0.1347988,0.59389376,133.1697,05/03.0/2024,2000,g 14.0,4.8
# From MPEC 2015-M77
107P/Wilson-Harrington,e,2.7986,266.7458,95.5016,2.625314,0.2317033,0.63137491,143.0597,05/03.0/2024,2000,g  9.0,4.0
# From MPEC 2022-P82
108P/Ciffreo,e,11.4361,50.2978,354.5036,3.742620,0.1361258,0.55605364,131.4401,05/03.0/2024,2000,g  8.0,12.0
# From  105, 420
109P/Swift-Tuttle,e,113.4291,139.4703,153.2185,26.21256,0.0073441,0.96260078,84.1469,05/03.0/2024,2000,g  4.0,6.0
# From MPEC 2023-KD6
110P/Hartley,e,11.7079,287.4902,167.5044,3.603888,0.1440612,0.31903238,133.5754,05/03.0/2024,2000,g  1.0,12.0
# From MPC 75718
111P/Helin-Roman-Crockett,e,4.2259,89.8128,1.2255,4.152229,0.1164883,0.10713763,122.3089,05/03.0/2024,2000,g  5.0,8.0
# From MPEC 2021-S45
112P/Urata-Niijima,e,24.2092,31.8331,21.5034,3.523513,0.1490185,0.59085714,230.1111,05/03.0/2024,2000,g 14.0,6.0
# From MPEC 2024-H91
113P/Spitaler,e,5.2877,306.6533,115.6431,3.694423,0.1387983,0.41994032,97.3353,05/03.0/2024,2000,g 13.5,4.0
# From MPEC 2023-A50
114P/Wiseman-Skiff,e,18.3014,271.0243,172.7684,3.541523,0.1478833,0.55595884,232.0912,05/03.0/2024,2000,g 11.5,6.0
# From MPEC 2023-J29
115P/Maury,e,11.6770,176.0138,120.9632,4.272104,0.1116198,0.51753787,153.4717,05/03.0/2024,2000,g 10.5,6.0
# From MPEC 2023-VM5
116P/Wild,e,3.6036,20.9696,173.2021,3.487505,0.1513324,0.37032750,99.3288,05/03.0/2024,2000,g  2.5,10.0
# From MPEC 2024-F91
117P/Helin-Roman-Alu,e,8.7055,58.8142,223.6669,4.096295,0.1188823,0.25596183,78.7195,05/03.0/2024,2000,g  2.5,8.0
# From MPEC 2024-H50
118P/Shoemaker-Levy,e,10.0902,142.0822,314.8882,3.348281,0.1608686,0.45372842,84.5405,05/03.0/2024,2000,g 12.0,4.0
# From MPEC 2024-H91
119P/Parker-Hartley,e,7.3923,104.5566,322.1835,3.807610,0.1326555,0.38837468,83.5314,05/03.0/2024,2000,g  3.5,8.0
# From MPEC 2022-CN4
120P/Mueller,e,8.4863,358.7225,36.7196,3.968096,0.1246898,0.37468063,136.0590,05/03.0/2024,2000,g 12.0,4.0
# From MPEC 2024-GJ3
121P/Shoemaker-Holt,e,20.1627,94.1112,11.7618,4.586008,0.1003580,0.18651988,30.9688,05/03.0/2024,2000,g  6.5,8.0
# From MPC 75718
122P/de Vico,e,85.9576,79.7292,12.9929,17.62843,0.0133163,0.96247345,139.2029,05/03.0/2024,2000,g  7.5,5.2
# From MPEC 2021-F20
123P/West-Hartley,e,15.2802,45.9017,104.0142,3.881699,0.1288758,0.44430429,247.5412,05/03.0/2024,2000,g 12.2,4.0
# From MPEC 2023-T65
124P/Mrkos,e,31.4435,0.0606,185.1733,3.373558,0.1590639,0.48672362,235.6466,05/03.0/2024,2000,g 13.5,2.8
# From MPEC 2024-H91
125P/Spacewatch,e,9.9848,153.1498,87.1379,3.129206,0.1780545,0.51211719,10.0972,05/03.0/2024,2000,g 13.0,6.0
# From MPEC 2024-F91
126P/IRAS,e,45.8707,357.8601,356.5785,5.633144,0.0737187,0.69638115,22.3168,05/03.0/2024,2000,g  6.0,8.0
# From MPEC 2024-AF0
127P/Holt-Olmstead,e,14.3003,13.6091,6.3121,3.452950,0.1536097,0.35924412,97.0199,05/03.0/2024,2000,g 11.0,6.0
# From MPC 89014
128P/Shoemaker-Holt,e,4.3703,214.3391,210.3696,4.485175,0.1037612,0.32239224,276.5387,05/03.0/2024,2000,g  8.5,4.0
# From MPEC 2024-GJ3
129P/Shoemaker-Levy,e,3.4422,184.8607,307.5708,4.291867,0.1108497,0.08562087,57.5205,05/03.0/2024,2000,g 11.0,4.0
# From MPEC 2024-GJ3
130P/McNaught-Hughes,e,6.0636,70.1786,246.1290,3.381179,0.1585265,0.46084318,2.8715,05/03.0/2024,2000,g 10.0,6.0
# From MPC102101
131P/Mueller,e,7.3606,214.1776,179.1286,3.676838,0.1397952,0.34492200,268.6660,05/03.0/2024,2000,g 11.0,4.0
# From MPEC 2024-BE0
132P/Helin-Roman-Alu,e,5.3811,173.9941,216.4596,3.890661,0.1284307,0.56454037,115.8131,05/03.0/2024,2000,g 11.0,6.0
# From MPC 94676
133P/Elst-Pizarro,e,1.3897,160.1017,131.9174,3.164336,0.1750976,0.15599576,358.7164,05/03.0/2024,2000,g 15.4,2.0
# From MPC 89012
134P/Kowal-Vavrova,e,4.3347,202.0099,18.7604,6.267857,0.0628095,0.58515276,229.3804,05/03.0/2024,2000,g 11.5,4.0
# From MPEC 2024-C04
135P/Shoemaker-Levy,e,6.0639,213.0191,22.4037,3.800645,0.1330203,0.29414515,100.6616,05/03.0/2024,2000,g  7.0,8.0
# From MPEC 2022-K19
136P/Mueller,e,9.4281,137.4964,225.1655,4.186026,0.1150804,0.29323250,331.7736,05/03.0/2024,2000,g 11.0,4.0
# From MPEC 2023-J29
137P/Shoemaker-Levy,e,4.8605,232.9244,141.2206,4.522458,0.1024807,0.57353272,201.4313,05/03.0/2024,2000,g 11.0,4.0
# From MPEC 2016-U66
138P/Shoemaker-Levy,e,10.0964,309.2870,95.6349,3.618765,0.1431738,0.53163073,261.1852,05/03.0/2024,2000,g 15.0,6.0
# From MPEC 2020-HN5
139P/Vaisala-Oterma,e,2.3374,242.1819,165.8575,4.515864,0.1027053,0.24835327,239.3201,05/03.0/2024,2000,g  9.5,4.0
# From MPEC 2015-E14
140P/Bowell-Skiff,e,3.7721,343.3477,172.3180,6.406628,0.0607799,0.69602088,194.9572,05/03.0/2024,2000,g 11.5,6.0
# From MPEC 2022-K19
141P/Machholz,e,13.9557,241.8094,153.6047,3.057498,0.1843549,0.73607431,227.2909,05/03.0/2024,2000,g 12.0,12.0
# From MPEC 2015-KD9
141P-A/Machholz,e,13.9430,153.5466,241.8810,3.057630,0.1843430,0.73607293,227.2438,05/03.0/2024,2000,g 12.0,12.0
# From MPC 24216
141P-B/Machholz,e,13.9869,153.6223,241.7702,3.056017,0.1844890,0.73583110,228.6104,05/03.0/2024,2000,g  9.0,4.0
# From MPC 37026
141P-D/Machholz,e,13.8350,153.2736,242.1286,3.066091,0.1835805,0.73702687,223.1610,05/03.0/2024,2000,g  9.0,4.0
# From MPEC 2015-R12
